{
  "type": "FeatureCollection",
  "features": [
    {
      "type": "Feature",
      "properties": {
        "norad_id": 37295,
        "name": "COSMOS 2251 DEB",
        "group": "cosmos-2251-debris",
        "lat": 70.37022272877208,
        "lon": -51.173072373526686,
        "alt_km": 638.056098062626,
        "timestamp": "2025-12-26T09:30:54.037644+00:00",
        "meta_object_name": "COSMOS 2251 DEB",
        "meta_object_id": "1993-036BJK",
        "meta_epoch": "2025-12-25T16:46:30.932832",
        "meta_mean_motion": 14.65312772,
        "meta_eccentricity": 0.00441488,
        "meta_inclination": 74.006,
        "meta_ra_of_asc_node": 256.6411,
        "meta_arg_of_pericenter": 71.87,
        "meta_mean_anomaly": 288.7269,
        "meta_ephemeris_type": 0,
        "meta_classification_type": "U",
        "meta_norad_cat_id": 37295,
        "meta_element_set_no": 999,
        "meta_rev_at_epoch": 82494,
        "meta_bstar": 0.00055089823,
        "meta_mean_motion_dot": 2.985e-05,
        "meta_mean_motion_ddot": 0,
        "tle_line1": "1 37295U 93036BJK 25359.69896913  .00002985  00000+0  55090-3 0  9997",
        "tle_line2": "2 37295  74.0060 256.6411 0044148  71.8700 288.7269 14.65312772824941"
      },
      "geometry": {
        "type": "Point",
        "coordinates": [
          -51.173072373526686,
          70.37022272877208
        ]
      }
    },
    {
      "type": "Feature",
      "properties": {
        "norad_id": 37305,
        "name": "COSMOS 2251 DEB",
        "group": "cosmos-2251-debris",
        "lat": -47.8299239343944,
        "lon": 103.81681862290476,
        "alt_km": 742.4158632453018,
        "timestamp": "2025-12-26T09:30:54.037654+00:00",
        "meta_object_name": "COSMOS 2251 DEB",
        "meta_object_id": "1993-036BJV",
        "meta_epoch": "2025-12-23T00:11:55.974336",
        "meta_mean_motion": 14.36169187,
        "meta_eccentricity": 0.00495961,
        "meta_inclination": 73.8701,
        "meta_ra_of_asc_node": 271.4675,
        "meta_arg_of_pericenter": 230.2466,
        "meta_mean_anomaly": 129.4312,
        "meta_ephemeris_type": 0,
        "meta_classification_type": "U",
        "meta_norad_cat_id": 37305,
        "meta_element_set_no": 999,
        "meta_rev_at_epoch": 67014,
        "meta_bstar": 0.00056579218,
        "meta_mean_motion_dot": 1.645e-05,
        "meta_mean_motion_ddot": 0,
        "tle_line1": "1 37305U 93036BJV 25357.00828674  .00001645  00000+0  56579-3 0  9996",
        "tle_line2": "2 37305  73.8701 271.4675 0049596 230.2466 129.4312 14.36169187670140"
      },
      "geometry": {
        "type": "Point",
        "coordinates": [
          103.81681862290476,
          -47.8299239343944
        ]
      }
    },
    {
      "type": "Feature",
      "properties": {
        "norad_id": 37312,
        "name": "COSMOS 2251 DEB",
        "group": "cosmos-2251-debris",
        "lat": 41.15157331405808,
        "lon": -166.81879403590227,
        "alt_km": 741.5817689880378,
        "timestamp": "2025-12-26T09:30:54.037665+00:00",
        "meta_object_name": "COSMOS 2251 DEB",
        "meta_object_id": "1993-036BKC",
        "meta_epoch": "2025-12-26T04:20:06.485568",
        "meta_mean_motion": 14.46165995,
        "meta_eccentricity": 0.0018452,
        "meta_inclination": 74.0294,
        "meta_ra_of_asc_node": 179.0901,
        "meta_arg_of_pericenter": 281.3159,
        "meta_mean_anomaly": 78.5925,
        "meta_ephemeris_type": 0,
        "meta_classification_type": "U",
        "meta_norad_cat_id": 37312,
        "meta_element_set_no": 999,
        "meta_rev_at_epoch": 86358,
        "meta_bstar": 0.00042518,
        "meta_mean_motion_dot": 1.496e-05,
        "meta_mean_motion_ddot": 0,
        "tle_line1": "1 37312U 93036BKC 25360.18063062  .00001496  00000+0  42518-3 0  9991",
        "tle_line2": "2 37312  74.0294 179.0901 0018452 281.3159  78.5925 14.46165995863586"
      },
      "geometry": {
        "type": "Point",
        "coordinates": [
          -166.81879403590227,
          41.15157331405808
        ]
      }
    },
    {
      "type": "Feature",
      "properties": {
        "norad_id": 37316,
        "name": "COSMOS 2251 DEB",
        "group": "cosmos-2251-debris",
        "lat": 64.46737286682631,
        "lon": 136.64609098183374,
        "alt_km": 563.2751212306257,
        "timestamp": "2025-12-26T09:30:54.037675+00:00",
        "meta_object_name": "COSMOS 2251 DEB",
        "meta_object_id": "1993-036BKG",
        "meta_epoch": "2025-12-23T10:21:39.448512",
        "meta_mean_motion": 14.94918981,
        "meta_eccentricity": 0.00294951,
        "meta_inclination": 74.0191,
        "meta_ra_of_asc_node": 359.4944,
        "meta_arg_of_pericenter": 63.4834,
        "meta_mean_anomaly": 296.9369,
        "meta_ephemeris_type": 0,
        "meta_classification_type": "U",
        "meta_norad_cat_id": 37316,
        "meta_element_set_no": 999,
        "meta_rev_at_epoch": 86303,
        "meta_bstar": 0.0022174093,
        "meta_mean_motion_dot": 0.00024458,
        "meta_mean_motion_ddot": 0,
        "tle_line1": "1 37316U 93036BKG 25357.43170658  .00024458  00000+0  22174-2 0  9997",
        "tle_line2": "2 37316  74.0191 359.4944 0029495  63.4834 296.9369 14.94918981863037"
      },
      "geometry": {
        "type": "Point",
        "coordinates": [
          136.64609098183374,
          64.46737286682631
        ]
      }
    },
    {
      "type": "Feature",
      "properties": {
        "norad_id": 37320,
        "name": "COSMOS 2251 DEB",
        "group": "cosmos-2251-debris",
        "lat": -2.307750154649995,
        "lon": 11.989867868427543,
        "alt_km": 637.3157688675165,
        "timestamp": "2025-12-26T09:30:54.037685+00:00",
        "meta_object_name": "COSMOS 2251 DEB",
        "meta_object_id": "1993-036BKL",
        "meta_epoch": "2025-12-22T20:16:00.405696",
        "meta_mean_motion": 14.78886663,
        "meta_eccentricity": 0.0046926,
        "meta_inclination": 74.0442,
        "meta_ra_of_asc_node": 198.3073,
        "meta_arg_of_pericenter": 283.335,
        "meta_mean_anomaly": 76.2596,
        "meta_ephemeris_type": 0,
        "meta_classification_type": "U",
        "meta_norad_cat_id": 37320,
        "meta_element_set_no": 999,
        "meta_rev_at_epoch": 66296,
        "meta_bstar": 0.000787018,
        "meta_mean_motion_dot": 5.877e-05,
        "meta_mean_motion_ddot": 0,
        "tle_line1": "1 37320U 93036BKL 25356.84444914  .00005877  00000+0  78702-3 0  9998",
        "tle_line2": "2 37320  74.0442 198.3073 0046926 283.3350  76.2596 14.78886663662961"
      },
      "geometry": {
        "type": "Point",
        "coordinates": [
          11.989867868427543,
          -2.307750154649995
        ]
      }
    },
    {
      "type": "Feature",
      "properties": {
        "norad_id": 37326,
        "name": "COSMOS 2251 DEB",
        "group": "cosmos-2251-debris",
        "lat": -72.03693471738927,
        "lon": -169.37406131561582,
        "alt_km": 733.132249454693,
        "timestamp": "2025-12-26T09:30:54.037696+00:00",
        "meta_object_name": "COSMOS 2251 DEB",
        "meta_object_id": "1993-036BKS",
        "meta_epoch": "2025-12-18T14:41:59.918784",
        "meta_mean_motion": 14.6160351,
        "meta_eccentricity": 0.00547059,
        "meta_inclination": 74.0257,
        "meta_ra_of_asc_node": 323.4491,
        "meta_arg_of_pericenter": 90.7075,
        "meta_mean_anomaly": 270.0361,
        "meta_ephemeris_type": 0,
        "meta_classification_type": "U",
        "meta_norad_cat_id": 37326,
        "meta_element_set_no": 999,
        "meta_rev_at_epoch": 85569,
        "meta_bstar": 0.00040097011,
        "meta_mean_motion_dot": 2.005e-05,
        "meta_mean_motion_ddot": 0,
        "tle_line1": "1 37326U 93036BKS 25352.61249906  .00002005  00000+0  40097-3 0  9995",
        "tle_line2": "2 37326  74.0257 323.4491 0054705  90.7075 270.0361 14.61603510855692"
      },
      "geometry": {
        "type": "Point",
        "coordinates": [
          -169.37406131561582,
          -72.03693471738927
        ]
      }
    },
    {
      "type": "Feature",
      "properties": {
        "norad_id": 37330,
        "name": "COSMOS 2251 DEB",
        "group": "cosmos-2251-debris",
        "lat": 20.770914852661026,
        "lon": 82.77747127383743,
        "alt_km": 665.4349828465993,
        "timestamp": "2025-12-26T09:30:54.037706+00:00",
        "meta_object_name": "COSMOS 2251 DEB",
        "meta_object_id": "1993-036BKW",
        "meta_epoch": "2025-12-24T00:52:02.666208",
        "meta_mean_motion": 14.59569552,
        "meta_eccentricity": 0.00567424,
        "meta_inclination": 74.0177,
        "meta_ra_of_asc_node": 273.5222,
        "meta_arg_of_pericenter": 118.7622,
        "meta_mean_anomaly": 241.926,
        "meta_ephemeris_type": 0,
        "meta_classification_type": "U",
        "meta_norad_cat_id": 37330,
        "meta_element_set_no": 999,
        "meta_rev_at_epoch": 86533,
        "meta_bstar": 0.00027721204,
        "meta_mean_motion_dot": 1.317e-05,
        "meta_mean_motion_ddot": 0,
        "tle_line1": "1 37330U 93036BKW 25358.03614197  .00001317  00000+0  27721-3 0  9994",
        "tle_line2": "2 37330  74.0177 273.5222 0056742 118.7622 241.9260 14.59569552865338"
      },
      "geometry": {
        "type": "Point",
        "coordinates": [
          82.77747127383743,
          20.770914852661026
        ]
      }
    }
  ]
}